[{"OBJECT_NAME":"STARLINK-5383","OBJECT_ID":"2022-177H","EPOCH":"2025-12-27T11:33:10.132992","MEAN_MOTION":15.02535998,"ECCENTRICITY":0.0001162,"INCLINATION":43.0022,"RA_OF_ASC_NODE":165.6618,"ARG_OF_PERICENTER":266.7183,"MEAN_ANOMALY":93.3526,"EPHEMERIS_TYPE":0,"CLASSIFICATION_TYPE":"U","NORAD_CAT_ID":54827,"ELEMENT_SET_NO":999,"REV_AT_EPOCH":16610,"BSTAR":3.9979e-5,"MEAN_MOTION_DOT":3.37e-6,"MEAN_MOTION_DDOT":0},{"OBJECT_NAME":"STARLINK-5381","OBJECT_ID":"2022-177J","EPOCH":"2025-12-27T17:51:17.423424","MEAN_MOTION":15.02532485,"ECCENTRICITY":0.0001475,"INCLINATION":43.0032,"RA_OF_ASC_NODE":164.1955,"ARG_OF_PERICENTER":271.247,"MEAN_ANOMALY":88.8203,"EPHEMERIS_TYPE":0,"CLASSIFICATION_TYPE":"U","NORAD_CAT_ID":54828,"ELEMENT_SET_NO":999,"REV_AT_EPOCH":16613,"BSTAR":5.0085e-5,"MEAN_MOTION_DOT":4.73e-6,"MEAN_MOTION_DDOT":0},{"OBJECT_NAME":"STARLINK-5394","OBJECT_ID":"2022-177L","EPOCH":"2025-12-27T17:43:17.436000","MEAN_MOTION":15.02539513,"ECCENTRICITY":0.0001142,"INCLINATION":43.0026,"RA_OF_ASC_NODE":164.1509,"ARG_OF_PERICENTER":261.4473,"MEAN_ANOMALY":98.624,"EPHEMERIS_TYPE":0,"CLASSIFICATION_TYPE":"U","NORAD_CAT_ID":54830,"ELEMENT_SET_NO":999,"REV_AT_EPOCH":16613,"BSTAR":3.4773e-5,"MEAN_MOTION_DOT":2.66e-6,"MEAN_MOTION_DDOT":0},{"OBJECT_NAME":"STARLINK-5395","OBJECT_ID":"2022-177M","EPOCH":"2025-12-27T19:46:11.572320","MEAN_MOTION":15.02536394,"ECCENTRICITY":0.0001256,"INCLINATION":43.0029,"RA_OF_ASC_NODE":163.9263,"ARG_OF_PERICENTER":265.6926,"MEAN_ANOMALY":94.3773,"EPHEMERIS_TYPE":0,"CLASSIFICATION_TYPE":"U","NORAD_CAT_ID":54831,"ELEMENT_SET_NO":999,"REV_AT_EPOCH":16614,"BSTAR":8.9852e-5,"MEAN_MOTION_DOT":1.01e-5,"MEAN_MOTION_DDOT":0},{"OBJECT_NAME":"STARLINK-5391","OBJECT_ID":"2022-177P","EPOCH":"2025-12-27T20:00:03.000384","MEAN_MOTION":15.2635203,"ECCENTRICITY":0.0002401,"INCLINATION":42.9973,"RA_OF_ASC_NODE":161.4136,"ARG_OF_PERICENTER":288.2704,"MEAN_ANOMALY":86.9605,"EPHEMERIS_TYPE":0,"CLASSIFICATION_TYPE":"U","NORAD_CAT_ID":54833,"ELEMENT_SET_NO":999,"REV_AT_EPOCH":583,"BSTAR":0.0040067,"MEAN_MOTION_DOT":0.00107524,"MEAN_MOTION_DDOT":0},{"OBJECT_NAME":"STARLINK-5386","OBJECT_ID":"2022-177Q","EPOCH":"2025-12-27T11:18:46.910592","MEAN_MOTION":15.02536178,"ECCENTRICITY":0.0001353,"INCLINATION":43.0022,"RA_OF_ASC_NODE":165.584,"ARG_OF_PERICENTER":263.1057,"MEAN_ANOMALY":96.9631,"EPHEMERIS_TYPE":0,"CLASSIFICATION_TYPE":"U","NORAD_CAT_ID":54834,"ELEMENT_SET_NO":999,"REV_AT_EPOCH":16610,"BSTAR":5.2022e-5,"MEAN_MOTION_DOT":4.99e-6,"MEAN_MOTION_DDOT":0},{"OBJECT_NAME":"STARLINK-5389","OBJECT_ID":"2022-177R","EPOCH":"2025-12-27T17:48:06.817248","MEAN_MOTION":15.02529398,"ECCENTRICITY":0.0001335,"INCLINATION":43.0033,"RA_OF_ASC_NODE":164.1798,"ARG_OF_PERICENTER":269.7187,"MEAN_ANOMALY":90.3503,"EPHEMERIS_TYPE":0,"CLASSIFICATION_TYPE":"U","NORAD_CAT_ID":54835,"ELEMENT_SET_NO":999,"REV_AT_EPOCH":16613,"BSTAR":6.006e-5,"MEAN_MOTION_DOT":6.08e-6,"MEAN_MOTION_DDOT":0},{"OBJECT_NAME":"STARLINK-5384","OBJECT_ID":"2022-177S","EPOCH":"2025-12-26T11:18:03.929184","MEAN_MOTION":15.0253722,"ECCENTRICITY":0.0001224,"INCLINATION":43.0018,"RA_OF_ASC_NODE":170.9776,"ARG_OF_PERICENTER":262.253,"MEAN_ANOMALY":97.8173,"EPHEMERIS_TYPE":0,"CLASSIFICATION_TYPE":"U","NORAD_CAT_ID":54836,"ELEMENT_SET_NO":999,"REV_AT_EPOCH":16595,"BSTAR":2.5526e-5,"MEAN_MOTION_DOT":1.41e-6,"MEAN_MOTION_DDOT":0},{"OBJECT_NAME":"STARLINK-5369","OBJECT_ID":"2022-177T","EPOCH":"2025-12-27T19:14:13.957152","MEAN_MOTION":15.02535492,"ECCENTRICITY":8.99e-5,"INCLINATION":43.0024,"RA_OF_ASC_NODE":163.766,"ARG_OF_PERICENTER":258.3227,"MEAN_ANOMALY":101.7514,"EPHEMERIS_TYPE":0,"CLASSIFICATION_TYPE":"U","NORAD_CAT_ID":54837,"ELEMENT_SET_NO":999,"REV_AT_EPOCH":16614,"BSTAR":1.7146e-5,"MEAN_MOTION_DOT":2.8e-7,"MEAN_MOTION_DDOT":0},{"OBJECT_NAME":"STARLINK-5372","OBJECT_ID":"2022-177U","EPOCH":"2025-12-27T17:27:18.948960","MEAN_MOTION":15.0254039,"ECCENTRICITY":0.0001275,"INCLINATION":43.0015,"RA_OF_ASC_NODE":164.0681,"ARG_OF_PERICENTER":276.8724,"MEAN_ANOMALY":83.1973,"EPHEMERIS_TYPE":0,"CLASSIFICATION_TYPE":"U","NORAD_CAT_ID":54838,"ELEMENT_SET_NO":999,"REV_AT_EPOCH":16613,"BSTAR":-0.00024561,"MEAN_MOTION_DOT":-3.52e-5,"MEAN_MOTION_DDOT":0},{"OBJECT_NAME":"STARLINK-5368","OBJECT_ID":"2022-177W","EPOCH":"2025-12-26T10:55:41.979936","MEAN_MOTION":15.02534783,"ECCENTRICITY":0.0001215,"INCLINATION":43.0021,"RA_OF_ASC_NODE":170.8615,"ARG_OF_PERICENTER":249.742,"MEAN_ANOMALY":110.3292,"EPHEMERIS_TYPE":0,"CLASSIFICATION_TYPE":"U","NORAD_CAT_ID":54840,"ELEMENT_SET_NO":999,"REV_AT_EPOCH":16594,"BSTAR":-4.9286e-5,"MEAN_MOTION_DOT":-8.69e-6,"MEAN_MOTION_DDOT":0},{"OBJECT_NAME":"STARLINK-4659","OBJECT_ID":"2022-177X","EPOCH":"2025-12-27T17:32:08.486592","MEAN_MOTION":15.02518552,"ECCENTRICITY":0.0001594,"INCLINATION":43.0048,"RA_OF_ASC_NODE":164.0924,"ARG_OF_PERICENTER":265.6716,"MEAN_ANOMALY":94.3944,"EPHEMERIS_TYPE":0,"CLASSIFICATION_TYPE":"U","NORAD_CAT_ID":54841,"ELEMENT_SET_NO":999,"REV_AT_EPOCH":16613,"BSTAR":6.4544e-5,"MEAN_MOTION_DOT":6.68e-6,"MEAN_MOTION_DDOT":0},{"OBJECT_NAME":"STARLINK-5387","OBJECT_ID":"2022-177Y","EPOCH":"2025-12-27T18:40:39.712224","MEAN_MOTION":15.02539079,"ECCENTRICITY":0.0001196,"INCLINATION":43.0019,"RA_OF_ASC_NODE":163.5913,"ARG_OF_PERICENTER":269.7977,"MEAN_ANOMALY":90.2728,"EPHEMERIS_TYPE":0,"CLASSIFICATION_TYPE":"U","NORAD_CAT_ID":54842,"ELEMENT_SET_NO":999,"REV_AT_EPOCH":16614,"BSTAR":5.7494e-5,"MEAN_MOTION_DOT":5.73e-6,"MEAN_MOTION_DDOT":0},{"OBJECT_NAME":"STARLINK-5304","OBJECT_ID":"2022-177Z","EPOCH":"2025-12-27T17:22:31.339776","MEAN_MOTION":15.02531978,"ECCENTRICITY":0.000126,"INCLINATION":43.0023,"RA_OF_ASC_NODE":164.0435,"ARG_OF_PERICENTER":260.5567,"MEAN_ANOMALY":99.5132,"EPHEMERIS_TYPE":0,"CLASSIFICATION_TYPE":"U","NORAD_CAT_ID":54843,"ELEMENT_SET_NO":999,"REV_AT_EPOCH":16613,"BSTAR":8.5048e-5,"MEAN_MOTION_DOT":9.45e-6,"MEAN_MOTION_DDOT":0},{"OBJECT_NAME":"STARLINK-5388","OBJECT_ID":"2022-177AA","EPOCH":"2025-12-27T12:11:21.162912","MEAN_MOTION":15.02538203,"ECCENTRICITY":0.0001182,"INCLINATION":43.0026,"RA_OF_ASC_NODE":164.9806,"ARG_OF_PERICENTER":266.4262,"MEAN_ANOMALY":93.6445,"EPHEMERIS_TYPE":0,"CLASSIFICATION_TYPE":"U","NORAD_CAT_ID":54844,"ELEMENT_SET_NO":999,"REV_AT_EPOCH":16610,"BSTAR":2.8812e-5,"MEAN_MOTION_DOT":1.86e-6,"MEAN_MOTION_DDOT":0},{"OBJECT_NAME":"STARLINK-5082","OBJECT_ID":"2022-177AB","EPOCH":"2025-12-27T12:22:32.863296","MEAN_MOTION":15.02536541,"ECCENTRICITY":0.0001144,"INCLINATION":43.0014,"RA_OF_ASC_NODE":165.0549,"ARG_OF_PERICENTER":265.3521,"MEAN_ANOMALY":94.7191,"EPHEMERIS_TYPE":0,"CLASSIFICATION_TYPE":"U","NORAD_CAT_ID":54845,"ELEMENT_SET_NO":999,"REV_AT_EPOCH":16610,"BSTAR":4.2368e-6,"MEAN_MOTION_DOT":-1.46e-6,"MEAN_MOTION_DDOT":0},{"OBJECT_NAME":"STARLINK-5360","OBJECT_ID":"2022-177AC","EPOCH":"2025-12-27T12:12:57.888576","MEAN_MOTION":15.02528642,"ECCENTRICITY":0.0001303,"INCLINATION":43.0028,"RA_OF_ASC_NODE":165.0111,"ARG_OF_PERICENTER":272.4558,"MEAN_ANOMALY":87.6135,"EPHEMERIS_TYPE":0,"CLASSIFICATION_TYPE":"U","NORAD_CAT_ID":54846,"ELEMENT_SET_NO":999,"REV_AT_EPOCH":16610,"BSTAR":1.9772e-6,"MEAN_MOTION_DOT":-1.77e-6,"MEAN_MOTION_DDOT":0},{"OBJECT_NAME":"STARLINK-5061","OBJECT_ID":"2022-177AD","EPOCH":"2025-12-27T19:14:57.994368","MEAN_MOTION":15.02535944,"ECCENTRICITY":0.0001345,"INCLINATION":43.0028,"RA_OF_ASC_NODE":137.7567,"ARG_OF_PERICENTER":265.4102,"MEAN_ANOMALY":94.6587,"EPHEMERIS_TYPE":0,"CLASSIFICATION_TYPE":"U","NORAD_CAT_ID":54847,"ELEMENT_SET_NO":999,"REV_AT_EPOCH":16644,"BSTAR":6.1795e-5,"MEAN_MOTION_DOT":6.31e-6,"MEAN_MOTION_DDOT":0},{"OBJECT_NAME":"STARLINK-5432","OBJECT_ID":"2022-177AE","EPOCH":"2025-12-27T18:36:24.541056","MEAN_MOTION":15.0253522,"ECCENTRICITY":0.0001342,"INCLINATION":43.003,"RA_OF_ASC_NODE":151.415,"ARG_OF_PERICENTER":266.0837,"MEAN_ANOMALY":93.9852,"EPHEMERIS_TYPE":0,"CLASSIFICATION_TYPE":"U","NORAD_CAT_ID":54848,"ELEMENT_SET_NO":999,"REV_AT_EPOCH":16628,"BSTAR":2.5647e-5,"MEAN_MOTION_DOT":1.43e-6,"MEAN_MOTION_DDOT":0},{"OBJECT_NAME":"STARLINK-5087","OBJECT_ID":"2022-177AG","EPOCH":"2025-12-27T16:54:17.517888","MEAN_MOTION":15.02530507,"ECCENTRICITY":0.0001256,"INCLINATION":43.0021,"RA_OF_ASC_NODE":151.7392,"ARG_OF_PERICENTER":272.2449,"MEAN_ANOMALY":87.825,"EPHEMERIS_TYPE":0,"CLASSIFICATION_TYPE":"U","NORAD_CAT_ID":54850,"ELEMENT_SET_NO":999,"REV_AT_EPOCH":16627,"BSTAR":-3.0837e-5,"MEAN_MOTION_DOT":-6.2e-6,"MEAN_MOTION_DDOT":0},{"OBJECT_NAME":"STARLINK-5084","OBJECT_ID":"2022-177AH","EPOCH":"2025-12-27T18:34:48.465120","MEAN_MOTION":15.02536698,"ECCENTRICITY":0.0001042,"INCLINATION":43.0014,"RA_OF_ASC_NODE":151.4093,"ARG_OF_PERICENTER":272.8784,"MEAN_ANOMALY":87.1939,"EPHEMERIS_TYPE":0,"CLASSIFICATION_TYPE":"U","NORAD_CAT_ID":54851,"ELEMENT_SET_NO":999,"REV_AT_EPOCH":16628,"BSTAR":3.721e-5,"MEAN_MOTION_DOT":2.99e-6,"MEAN_MOTION_DDOT":0},{"OBJECT_NAME":"STARLINK-5418","OBJECT_ID":"2022-177AJ","EPOCH":"2025-12-27T11:57:30.952224","MEAN_MOTION":15.02536082,"ECCENTRICITY":0.0001463,"INCLINATION":43.0026,"RA_OF_ASC_NODE":152.774,"ARG_OF_PERICENTER":269.2564,"MEAN_ANOMALY":90.8111,"EPHEMERIS_TYPE":0,"CLASSIFICATION_TYPE":"U","NORAD_CAT_ID":54852,"ELEMENT_SET_NO":999,"REV_AT_EPOCH":16624,"BSTAR":4.9019e-5,"MEAN_MOTION_DOT":4.59e-6,"MEAN_MOTION_DDOT":0},{"OBJECT_NAME":"STARLINK-5427","OBJECT_ID":"2022-177AK","EPOCH":"2025-12-27T12:02:20.243616","MEAN_MOTION":15.02523383,"ECCENTRICITY":0.0001371,"INCLINATION":43.0031,"RA_OF_ASC_NODE":152.8056,"ARG_OF_PERICENTER":263.0701,"MEAN_ANOMALY":96.9985,"EPHEMERIS_TYPE":0,"CLASSIFICATION_TYPE":"U","NORAD_CAT_ID":54853,"ELEMENT_SET_NO":999,"REV_AT_EPOCH":16624,"BSTAR":-9.2338e-5,"MEAN_MOTION_DOT":-1.45e-5,"MEAN_MOTION_DDOT":0}]
